OPS 6582 (TRANSIT 5B-5) 
1 00965U 64083D   24177.57507185  .00000042  00000+0  45409-4 0  9991
2 00965  90.0436 198.3375 0039772 226.1683 244.5366 13.56887797946310
LES-1                   
1 01002U 65008C   24176.44479141  .00000011  00000+0  33109-3 0  9996
2 01002  32.1472 316.8552 0014246 183.7400 176.2992  9.88353930144681
SOLRAD 7B               
1 01291U 65016D   24177.58252960  .00000025  00000+0  57480-4 0  9993
2 01291  70.0799 330.2369 0021734 341.8742  18.1586 13.94793172 16078
SECOR 4 (EGRS 4)        
1 01315U 65027B   24177.46689400 -.00000057  00000+0 -23641-3 0  9990
2 01315  90.2387 359.4928 0029407 285.8533 131.8305 12.92642325793687
TIROS 10                
1 01430U 65051A   24177.29639156  .00000287  00000+0  10116-3 0  9995
2 01430  98.4382 291.9866 0057046  87.5688 273.2031 14.40939567 91926
ALOUETTE 2              
1 01804U 65098A   24177.46955745  .00000324  00000+0  10927-3 0  9997
2 01804  79.8003 170.0754 1335073 254.6120  90.3921 12.27080235590703
OV3-3                   
1 02389U 66070A   24177.56258803  .00013904  00000+0  70055-3 0  9995
2 02389  81.3320 236.4300 1121797 198.2491 157.5125 13.19621975502749
SECOR 7 (EGRS 7)        
1 02411U 66077B   24176.21581128  .00000029  00000+0  13421-1 0  9994
2 02411  90.3320 269.0097 0015181  70.0909 290.1577  8.59615648815255
ERS 15                  
1 02412U 66077C   24175.64704503  .00000002  00000+0  00000+0 0  9993
2 02412  90.3323 268.8019 0009351  77.1768 283.0127  8.59077041328321
ISIS 1                  
1 03669U 69009A   24177.56801794  .00000137  00000+0  10078-3 0  9998
2 03669  88.4373 223.2674 1708263 264.8243  75.6549 11.29925752278254
SECOR 13 (EGRS 13)      
1 03891U 69037B   24177.63314845 -.00000013  00000+0  53098-4 0  9994
2 03891  99.7526  65.6709 0038969 219.3256 204.0584 13.42928399704900
ATS 5                   
1 04068U 69069A   24177.24332569 -.00000073  00000+0  00000+0 0  9992
2 04068   1.8095 268.0205 0003175 350.9047 109.9019  0.99495527 39146
OPS 7613 (P/L 4)        
1 04237U 69082E   24177.52282921  .00000050  00000+0  75270-4 0  9992
2 04237  70.0132 205.3095 0021115 343.8121 124.9437 13.95769399785592
OPS 7613 (P/L 1)        
1 04256U 69082B   24177.12263001  .00000140  00000+0  13425-3 0  9990
2 04256  70.0104  75.7725 0021641 288.1774  71.6977 13.98791545789479
SHINSEI (MS-F2)         
1 05485U 71080A   24176.63538284  .00000037  00000+0  21217-4 0  9993
2 05485  32.0600 349.5137 0640321 301.6877  52.2812 12.74198252457057
PROSPERO (BLACK ARROW)  
1 05580U 71093A   24177.58338127  .00001806  00000+0  39213-3 0  9991
2 05580  82.0389 202.7419 0517074 131.8033 232.8525 13.97879028647545
OPS 7898 (P/L 2)        
1 05680U 71110C   24177.09064213  .00000012  00000+0  65283-4 0  9995
2 05680  69.9906  52.9998 0008449 338.1669  21.9064 13.74643906248978
NOAA 2 (ITOS-D)         
1 06235U 72082A   24177.63531875 -.00000033  00000+0  87828-4 0  9997
2 06235 102.0145 176.7046 0004495 102.8555   5.8716 12.53181521364560
OSCAR 7 (AO-7)          
1 07530U 74089B   24177.61986194 -.00000048  00000+0 -12685-4 0  9997
2 07530 101.9775 172.3467 0012635  68.6630  53.7955 12.53676381270097
TIROS N                 
1 11060U 78096A   24177.60030434  .00000213  00000+0  12246-3 0  9992
2 11060  98.5314 217.6797 0010842 165.5895 194.5592 14.18834049576402
PHASE 3B (AO-10)        
1 14129U 83058B   24167.92656876 -.00000490  00000+0  00000+0 0  9992
2 14129  27.4378 339.2768 6034717 277.0346  21.9121  2.05867968280439
HILAT                   
1 14154U 83063A   24177.33275198  .00000611  00000+0  19711-3 0  9993
2 14154  82.0246 111.7063 0039170 318.8747 161.0562 14.37542608143825
UOSAT 2 (UO-11)         
1 14781U 84021B   24177.50247196  .00001752  00000+0  20257-3 0  9994
2 14781  97.7050 146.5239 0009460  56.0068 304.2045 14.86767268149721
NOAA 9                  
1 15427U 84123A   24177.51746324  .00000157  00000+0  10230-3 0  9991
2 15427  99.1175 175.1580 0013886 230.5316 242.3656 14.16607823 41221
GEOSAT                  
1 15595U 85021A   24177.46227286  .00000202  00000+0  10920-3 0  9997
2 15595 108.0618  19.6544 0002314 259.3164 100.7717 14.39038005 58908
EUTELSAT 1-F4 (ECS 4)   
1 18351U 87078B   24177.40615360 -.00000106  00000+0  00000+0 0  9990
2 18351  14.3447 347.2325 0009706  48.7614 130.6507  0.98688075119634
AKEBONO (EXOS-D)        
1 19822U 89016A   24177.48623783  .00173532  54004-5  10157-2 0  9993
2 19822  74.9288 194.5162 0697620 210.8911 144.9420 14.49590393227622
PACSAT (AO-16)          
1 20439U 90005D   24177.51180458  .00000215  00000+0  94824-4 0  9993
2 20439  98.8990 182.8696 0010623 181.5372 296.6609 14.33396524798521
LUSAT (LO-19)           
1 20442U 90005G   24177.52944761  .00000215  00000+0  94309-4 0  9991
2 20442  98.8821 168.0158 0012067 156.2279 203.9464 14.33557360798972
IRS-1B                  
1 21688U 91061A   24177.59575615  .00000078  00000+0  88148-4 0  9993
2 21688  99.3640 157.8819 0024751 162.7583 308.8435 13.97625263567685
COSMOS 2197             
1 22034U 92042A   24177.48428264  .00000026  00000+0  83510-4 0  9995
2 22034  82.5953 330.0985 0013529 115.2386 308.9106 12.64216617474096
PEGASUS R/B             
1 22491U 93009C   24176.45979776  .00001266  00000+0  23681-3 0  9990
2 22491  24.9789 311.2380 0045655 243.4775 116.1049 14.55512686664117
EYESAT A (AO-27)        
1 22825U 93061C   24177.37153477  .00000164  00000+0  80164-4 0  9999
2 22825  98.7879 230.2322 0009345  59.6042 300.6063 14.30510211603780
ITAMSAT (IO-26)         
1 22826U 93061D   24177.13812901  .00000176  00000+0  84183-4 0  9996
2 22826  98.7825 229.8602 0009686  46.3651 313.8333 14.30892855604036
RADIO ROSTO (RS-15)     
1 23439U 94085A   24177.53939324 -.00000030  00000+0  35148-3 0  9993
2 23439  64.8192  30.2616 0149904 142.1348 219.0231 11.27577646214530
JAS-2 (FO-29)           
1 24278U 96046B   24177.40079283  .00000023  00000+0  58562-4 0  9996
2 24278  98.5805 110.9805 0350294 166.8265 194.2319 13.53191121375541
FORTE                   
1 24920U 97047A   24177.50958647  .00000169  00000+0  92725-4 0  9993
2 24920  69.9521 203.2911 0022683 188.8700 171.2024 14.27158358395684
NOAA 15                 
1 25338U 98030A   24177.58286512  .00000296  00000+0  14044-3 0  9991
2 25338  98.5677 204.5341 0009205 303.8863  56.1441 14.26610786358380
TECHSAT 1B (GO-32)      
1 25397U 98043D   24177.52816570  .00000117  00000+0  70824-4 0  9998
2 25397  98.9218 144.3755 0002181 113.4992 246.6416 14.24059950348604
ISS (ZARYA)             
1 25544U 98067A   24177.66213422  .00017473  00000+0  31566-3 0  9992
2 25544  51.6406 273.3126 0010998   6.4372  78.3991 15.49746892459861
ORSTED                  
1 25635U 99008B   24177.60588810  .00000551  00000+0  13442-3 0  9991
2 25635  96.4700 240.5198 0134345 340.3687  19.2367 14.49984079337320
LANDSAT 7               
1 25682U 99020A   24177.52069097  .00000585  00000+0  12907-3 0  9991
2 25682  97.8869 203.9158 0001330  81.5220  39.9682 14.60712989340354
ORBCOMM FM36            
1 25984U 99065E   24177.57027011  .00001567  00000+0  58538-3 0  9991
2 25984  45.0413 338.0678 0003253 284.2272  75.8215 14.35783020283129
DMSP 5D-3 F15 (USA 147) 
1 25991U 99067A   24177.62694497  .00000184  00000+0  11467-3 0  9999
2 25991  99.0642 193.2234 0008864 250.1848 218.9019 14.17026650268431
OPAL (OO-38)            
1 26063U 00004C   24177.37304191  .00000218  00000+0  92481-4 0  9998
2 26063 100.2153 328.9591 0035434 273.7104  86.0025 14.37359159279568
IMAGE                   
1 26113U 00017A   24175.31028696  .00000021  00000+0  41125-2 0  9992
2 26113  94.2491 303.6001 7526774  15.0473 358.3834  1.68650552149292
CLUSTER II-FM7 (SAMBA)  
1 26410U 00041A   24178.38013732  .00001136  00000+0  00000+0 0  9996
2 26410 139.4179 358.6705 7508769 213.6396 359.4745  0.44210588 28846
CLUSTER II-FM6 (SALSA)  
1 26411U 00041B   24178.29511464  .00004334  00000+0  00000+0 0  9995
2 26411 148.7278  27.6140 9021372 243.1625 359.5499  0.44243003 28150
CLUSTER II-FM5 (RUMBA)  
1 26463U 00045A   24178.36406152  .00003414  00000+0  00000+0 0  9999
2 26463 150.6879  20.8912 8556275 236.4526 359.4543  0.44221087 29425
CLUSTER II-FM8 (TANGO)  
1 26464U 00045B   24178.38019775  .00001137  00000+0  00000+0 0  9993
2 26464 139.4356 358.6826 7507355 213.6588 359.4201  0.44220851 17095
MEGSAT-1                
1 26546U 00057B   24177.46537385  .00002673  00000+0  24308-3 0  9994
2 26546  64.5514 209.1638 0024374 230.6221 129.2734 14.97212045289265
PHASE 3D (AO-40)        
1 26609U 00072B   24176.73137185 -.00000082  00000+0  00000+0 0  9996
2 26609   6.3671 101.7153 7973207 309.3196   4.1609  1.25590334108430
ODIN                    
1 26702U 01007A   24177.61727950  .00017348  00000+0  74041-3 0  9994
2 26702  97.4795 192.7598 0005937 237.3608 122.7056 15.22952588278180
OMNI-M1                 
1 26857U 01026A   24176.62401190 -.00000034  00000+0  00000+0 0  9996
2 26857  44.9571  51.3647 0013178 233.8551 126.0732  3.92402628177218
PCSAT (NO-44)           
1 26931U 01043C   24177.59218044  .00000261  00000+0  12977-3 0  9990
2 26931  67.0520 309.8386 0007249 278.2984  81.7295 14.31259487187150
PROBA-1                 
1 26958U 01049B   24177.52871196  .00003755  00000+0  28665-3 0  9993
2 26958  97.9176 154.2491 0059903  36.3473 324.1796 15.01201012235082
SPOT 5                  
1 27421U 02021A   24177.59478033  .00000562  00000+0  13121-3 0  9994
2 27421  98.0877 233.6972 0132335 356.9719   3.0663 14.53331305157971
FENGYUN 1D              
1 27431U 02024B   24177.61162193  .00000144  00000+0  10722-3 0  9998
2 27431  99.0533 216.2108 0016460 109.0959 251.1994 14.09990837137785
SAUDISAT 1C (SO-50)     
1 27607U 02058C   24177.44947403  .00001182  00000+0  17756-3 0  9993
2 27607  64.5524 196.1511 0026250 108.4252 251.9709 14.79046114157543
